[{"OBJECT_NAME":"STARLINK-31702","OBJECT_ID":"2024-076X","EPOCH":"2025-12-03T00:21:21.667104","MEAN_MOTION":15.27566383,"ECCENTRICITY":0.00011744,"INCLINATION":43.0012,"RA_OF_ASC_NODE":195.2999,"ARG_OF_PERICENTER":271.7435,"MEAN_ANOMALY":88.3282,"EPHEMERIS_TYPE":0,"CLASSIFICATION_TYPE":"U","NORAD_CAT_ID":59585,"ELEMENT_SET_NO":999,"REV_AT_EPOCH":9171,"BSTAR":0.00023404471,"MEAN_MOTION_DOT":6.181e-5,"MEAN_MOTION_DDOT":0},{"OBJECT_NAME":"STARLINK-31704","OBJECT_ID":"2024-076Y","EPOCH":"2025-12-03T07:54:04.495680","MEAN_MOTION":15.27575271,"ECCENTRICITY":0.00012736,"INCLINATION":43.0014,"RA_OF_ASC_NODE":149.6852,"ARG_OF_PERICENTER":267.37,"MEAN_ANOMALY":92.7006,"EPHEMERIS_TYPE":0,"CLASSIFICATION_TYPE":"U","NORAD_CAT_ID":59586,"ELEMENT_SET_NO":999,"REV_AT_EPOCH":9225,"BSTAR":-7.519946e-6,"MEAN_MOTION_DOT":-4.69e-6,"MEAN_MOTION_DDOT":0},{"OBJECT_NAME":"STARLINK-31770","OBJECT_ID":"2024-080A","EPOCH":"2025-12-03T01:50:13.661664","MEAN_MOTION":15.27587347,"ECCENTRICITY":0.00014655,"INCLINATION":43.0034,"RA_OF_ASC_NODE":223.812,"ARG_OF_PERICENTER":257.3005,"MEAN_ANOMALY":102.7683,"EPHEMERIS_TYPE":0,"CLASSIFICATION_TYPE":"U","NORAD_CAT_ID":59601,"ELEMENT_SET_NO":999,"REV_AT_EPOCH":9096,"BSTAR":6.6494178e-5,"MEAN_MOTION_DOT":1.568e-5,"MEAN_MOTION_DDOT":0},{"OBJECT_NAME":"STARLINK-31778","OBJECT_ID":"2024-080B","EPOCH":"2025-12-03T00:18:37.585728","MEAN_MOTION":15.27585891,"ECCENTRICITY":0.00014604,"INCLINATION":43.0035,"RA_OF_ASC_NODE":220.7387,"ARG_OF_PERICENTER":267.5994,"MEAN_ANOMALY":92.469,"EPHEMERIS_TYPE":0,"CLASSIFICATION_TYPE":"U","NORAD_CAT_ID":59602,"ELEMENT_SET_NO":999,"REV_AT_EPOCH":8978,"BSTAR":0.00029806704,"MEAN_MOTION_DOT":7.95e-5,"MEAN_MOTION_DDOT":0},{"OBJECT_NAME":"STARLINK-31776","OBJECT_ID":"2024-080C","EPOCH":"2025-12-03T01:47:40.331040","MEAN_MOTION":15.27593753,"ECCENTRICITY":0.00020093,"INCLINATION":43.0008,"RA_OF_ASC_NODE":227.2543,"ARG_OF_PERICENTER":232.4584,"MEAN_ANOMALY":127.6086,"EPHEMERIS_TYPE":0,"CLASSIFICATION_TYPE":"U","NORAD_CAT_ID":59603,"ELEMENT_SET_NO":999,"REV_AT_EPOCH":8971,"BSTAR":7.9520663e-5,"MEAN_MOTION_DOT":1.927e-5,"MEAN_MOTION_DDOT":0},{"OBJECT_NAME":"STARLINK-31765","OBJECT_ID":"2024-080D","EPOCH":"2025-12-03T04:16:40.816416","MEAN_MOTION":15.27609828,"ECCENTRICITY":0.00013459,"INCLINATION":42.9997,"RA_OF_ASC_NODE":219.3961,"ARG_OF_PERICENTER":265.4431,"MEAN_ANOMALY":94.6267,"EPHEMERIS_TYPE":0,"CLASSIFICATION_TYPE":"U","NORAD_CAT_ID":59604,"ELEMENT_SET_NO":999,"REV_AT_EPOCH":8981,"BSTAR":0.001020308,"MEAN_MOTION_DOT":0.00027947,"MEAN_MOTION_DDOT":0},{"OBJECT_NAME":"STARLINK-31767","OBJECT_ID":"2024-080E","EPOCH":"2025-12-03T01:39:07.403616","MEAN_MOTION":15.27589391,"ECCENTRICITY":0.00014079,"INCLINATION":43.0018,"RA_OF_ASC_NODE":223.7552,"ARG_OF_PERICENTER":263.3462,"MEAN_ANOMALY":96.7229,"EPHEMERIS_TYPE":0,"CLASSIFICATION_TYPE":"U","NORAD_CAT_ID":59605,"ELEMENT_SET_NO":999,"REV_AT_EPOCH":8975,"BSTAR":5.3946396e-5,"MEAN_MOTION_DOT":1.223e-5,"MEAN_MOTION_DDOT":0},{"OBJECT_NAME":"STARLINK-31782","OBJECT_ID":"2024-080F","EPOCH":"2025-12-03T02:02:29.327424","MEAN_MOTION":15.27586159,"ECCENTRICITY":8.887e-5,"INCLINATION":43.0016,"RA_OF_ASC_NODE":227.334,"ARG_OF_PERICENTER":277.1271,"MEAN_ANOMALY":82.948,"EPHEMERIS_TYPE":0,"CLASSIFICATION_TYPE":"U","NORAD_CAT_ID":59606,"ELEMENT_SET_NO":999,"REV_AT_EPOCH":8971,"BSTAR":1.4174636e-5,"MEAN_MOTION_DOT":1.28e-6,"MEAN_MOTION_DDOT":0},{"OBJECT_NAME":"STARLINK-31755","OBJECT_ID":"2024-080G","EPOCH":"2025-12-03T02:08:01.340160","MEAN_MOTION":15.27597865,"ECCENTRICITY":0.00012458,"INCLINATION":43.0033,"RA_OF_ASC_NODE":227.3674,"ARG_OF_PERICENTER":257.6498,"MEAN_ANOMALY":102.4214,"EPHEMERIS_TYPE":0,"CLASSIFICATION_TYPE":"U","NORAD_CAT_ID":59607,"ELEMENT_SET_NO":999,"REV_AT_EPOCH":8971,"BSTAR":6.4575856e-5,"MEAN_MOTION_DOT":1.516e-5,"MEAN_MOTION_DDOT":0},{"OBJECT_NAME":"STARLINK-31585","OBJECT_ID":"2024-080H","EPOCH":"2025-12-03T01:59:58.049664","MEAN_MOTION":15.27583568,"ECCENTRICITY":0.00013695,"INCLINATION":43.0006,"RA_OF_ASC_NODE":219.5426,"ARG_OF_PERICENTER":271.7856,"MEAN_ANOMALY":88.2839,"EPHEMERIS_TYPE":0,"CLASSIFICATION_TYPE":"U","NORAD_CAT_ID":59608,"ELEMENT_SET_NO":999,"REV_AT_EPOCH":8981,"BSTAR":0.00012726042,"MEAN_MOTION_DOT":3.242e-5,"MEAN_MOTION_DDOT":0},{"OBJECT_NAME":"STARLINK-31667","OBJECT_ID":"2024-080J","EPOCH":"2025-12-03T02:05:31.780896","MEAN_MOTION":15.27576017,"ECCENTRICITY":0.00012314,"INCLINATION":43.0005,"RA_OF_ASC_NODE":219.5643,"ARG_OF_PERICENTER":258.0624,"MEAN_ANOMALY":102.0089,"EPHEMERIS_TYPE":0,"CLASSIFICATION_TYPE":"U","NORAD_CAT_ID":59609,"ELEMENT_SET_NO":999,"REV_AT_EPOCH":8980,"BSTAR":0.00036609602,"MEAN_MOTION_DOT":9.824e-5,"MEAN_MOTION_DDOT":0},{"OBJECT_NAME":"STARLINK-31729","OBJECT_ID":"2024-080K","EPOCH":"2025-12-03T01:45:22.571424","MEAN_MOTION":15.27579609,"ECCENTRICITY":0.00015904,"INCLINATION":43.0051,"RA_OF_ASC_NODE":220.3263,"ARG_OF_PERICENTER":256.136,"MEAN_ANOMALY":103.9315,"EPHEMERIS_TYPE":0,"CLASSIFICATION_TYPE":"U","NORAD_CAT_ID":59610,"ELEMENT_SET_NO":999,"REV_AT_EPOCH":8979,"BSTAR":6.9791694e-5,"MEAN_MOTION_DOT":1.659e-5,"MEAN_MOTION_DDOT":0},{"OBJECT_NAME":"STARLINK-31448","OBJECT_ID":"2024-080L","EPOCH":"2025-12-03T01:23:10.568544","MEAN_MOTION":15.27580459,"ECCENTRICITY":0.0001038,"INCLINATION":42.9996,"RA_OF_ASC_NODE":220.213,"ARG_OF_PERICENTER":267.7861,"MEAN_ANOMALY":92.2872,"EPHEMERIS_TYPE":0,"CLASSIFICATION_TYPE":"U","NORAD_CAT_ID":59611,"ELEMENT_SET_NO":999,"REV_AT_EPOCH":8979,"BSTAR":2.8601347e-5,"MEAN_MOTION_DOT":5.25e-6,"MEAN_MOTION_DDOT":0},{"OBJECT_NAME":"STARLINK-31748","OBJECT_ID":"2024-080M","EPOCH":"2025-12-03T00:55:25.162752","MEAN_MOTION":15.27587483,"ECCENTRICITY":0.0001007,"INCLINATION":42.9955,"RA_OF_ASC_NODE":220.0672,"ARG_OF_PERICENTER":269.9219,"MEAN_ANOMALY":90.1517,"EPHEMERIS_TYPE":0,"CLASSIFICATION_TYPE":"U","NORAD_CAT_ID":59612,"ELEMENT_SET_NO":999,"REV_AT_EPOCH":9096,"BSTAR":0.00017259359,"MEAN_MOTION_DOT":4.491e-5,"MEAN_MOTION_DDOT":0},{"OBJECT_NAME":"STARLINK-31746","OBJECT_ID":"2024-080N","EPOCH":"2025-12-03T02:13:34.232448","MEAN_MOTION":15.27598879,"ECCENTRICITY":0.00010742,"INCLINATION":43.0034,"RA_OF_ASC_NODE":227.3677,"ARG_OF_PERICENTER":350.2313,"MEAN_ANOMALY":9.8518,"EPHEMERIS_TYPE":0,"CLASSIFICATION_TYPE":"U","NORAD_CAT_ID":59613,"ELEMENT_SET_NO":999,"REV_AT_EPOCH":8971,"BSTAR":0.00012546216,"MEAN_MOTION_DOT":3.194e-5,"MEAN_MOTION_DDOT":0},{"OBJECT_NAME":"STARLINK-31762","OBJECT_ID":"2024-080P","EPOCH":"2025-12-03T01:33:34.678944","MEAN_MOTION":15.27581417,"ECCENTRICITY":9.368e-5,"INCLINATION":43.0006,"RA_OF_ASC_NODE":223.7264,"ARG_OF_PERICENTER":254.9673,"MEAN_ANOMALY":105.1075,"EPHEMERIS_TYPE":0,"CLASSIFICATION_TYPE":"U","NORAD_CAT_ID":59614,"ELEMENT_SET_NO":999,"REV_AT_EPOCH":8975,"BSTAR":1.7964793e-5,"MEAN_MOTION_DOT":2.32e-6,"MEAN_MOTION_DDOT":0}]
