STARLINK-31702          
1 59585U 24076X   25337.01483411  .00006181  00000+0  23404-3 0  9994
2 59585  43.0012 195.2999 0001174 271.7435  88.3282 15.27566383 91715
STARLINK-31704          
1 59586U 24076Y   25337.32921870 -.00000469  00000+0 -75199-5 0  9990
2 59586  43.0014 149.6852 0001273 267.3700  92.7006 15.27575271 92254
STARLINK-31770          
1 59601U 24080A   25337.07654701  .00001568  00000+0  66494-4 0  9997
2 59601  43.0034 223.8120 0001465 257.3005 102.7683 15.27587347 90963
STARLINK-31778          
1 59602U 24080B   25337.01293502  .00007950  00000+0  29807-3 0  9997
2 59602  43.0035 220.7387 0001460 267.5994  92.4690 15.27585891 89784
STARLINK-31776          
1 59603U 24080C   25337.07477235  .00001927  00000+0  79521-4 0  9998
2 59603  43.0008 227.2543 0002009 232.4584 127.6086 15.27593753 89716
STARLINK-31765          
1 59604U 24080D   25337.17825019  .00027947  00000+0  10203-2 0  9997
2 59604  42.9997 219.3961 0001345 265.4431  94.6267 15.27609828 89813
STARLINK-31767          
1 59605U 24080E   25337.06883569  .00001223  00000+0  53946-4 0  9992
2 59605  43.0018 223.7552 0001407 263.3462  96.7229 15.27589391 89751
STARLINK-31782          
1 59606U 24080F   25337.08506166  .00000128  00000+0  14175-4 0  9994
2 59606  43.0016 227.3340 0000888 277.1271  82.9480 15.27586159 89719
STARLINK-31755          
1 59607U 24080G   25337.08890440  .00001516  00000+0  64576-4 0  9998
2 59607  43.0033 227.3674 0001245 257.6498 102.4214 15.27597865 89710
STARLINK-31585          
1 59608U 24080H   25337.08331076  .00003242  00000+0  12726-3 0  9991
2 59608  43.0006 219.5426 0001369 271.7856  88.2839 15.27583568 89811
STARLINK-31667          
1 59609U 24080J   25337.08717339  .00009824  00000+0  36610-3 0  9992
2 59609  43.0005 219.5643 0001231 258.0624 102.0089 15.27576017 89803
STARLINK-31729          
1 59610U 24080K   25337.07317791  .00001659  00000+0  69792-4 0  9997
2 59610  43.0051 220.3263 0001590 256.1360 103.9315 15.27579609 89798
STARLINK-31448          
1 59611U 24080L   25337.05776121  .00000525  00000+0  28601-4 0  9997
2 59611  42.9996 220.2130 0001038 267.7861  92.2872 15.27580459 89791
STARLINK-31748          
1 59612U 24080M   25337.03848568  .00004491  00000+0  17259-3 0  9993
2 59612  42.9955 220.0672 0001007 269.9219  90.1517 15.27587483 90961
STARLINK-31746          
1 59613U 24080N   25337.09275732  .00003194  00000+0  12546-3 0  9990
2 59613  43.0034 227.3677 0001074 350.2313   9.8518 15.27598879 89710
STARLINK-31762          
1 59614U 24080P   25337.06498471  .00000232  00000+0  17965-4 0  9996
2 59614  43.0006 223.7264 0000936 254.9673 105.1075 15.27581417 89759
